STRIX-BETA              
1 51847U 22020A   26068.81006817  .00254279  00000+0  15321-2 0  9996
2 51847  97.5704 163.5020 0005628 250.1372 109.9287 15.76952977222995
STARLINK-35934          
1 67542U 26014L   26068.67293798  .00172393  00000+0  11326-2 0  9999
2 67542  97.2843 313.6495 0001683  34.4185 325.7189 15.75208634  8568
