[{"OBJECT_NAME":"STRIX-BETA","OBJECT_ID":"2022-020A","EPOCH":"2026-03-09T19:26:29.889888","MEAN_MOTION":15.76952977,"ECCENTRICITY":0.00056276,"INCLINATION":97.5704,"RA_OF_ASC_NODE":163.502,"ARG_OF_PERICENTER":250.1372,"MEAN_ANOMALY":109.9287,"EPHEMERIS_TYPE":0,"CLASSIFICATION_TYPE":"U","NORAD_CAT_ID":51847,"ELEMENT_SET_NO":999,"REV_AT_EPOCH":22299,"BSTAR":0.0015320612,"MEAN_MOTION_DOT":0.0025428,"MEAN_MOTION_DDOT":0},{"OBJECT_NAME":"STARLINK-35934","OBJECT_ID":"2026-014L","EPOCH":"2026-03-09T16:09:01.841472","MEAN_MOTION":15.75208634,"ECCENTRICITY":0.00016833,"INCLINATION":97.2843,"RA_OF_ASC_NODE":313.6495,"ARG_OF_PERICENTER":34.4185,"MEAN_ANOMALY":325.7189,"EPHEMERIS_TYPE":0,"CLASSIFICATION_TYPE":"U","NORAD_CAT_ID":67542,"ELEMENT_SET_NO":999,"REV_AT_EPOCH":856,"BSTAR":0.0011325647,"MEAN_MOTION_DOT":0.00172393,"MEAN_MOTION_DDOT":0}]
